STARLINK-33749          
1 63716U 25087V   25127.91668981 -.01179386  41539-3 -33595-2 0  9999
2 63716  53.1553 211.1879 0000769  55.5388  20.5230 15.92641801  1462
STARLINK-33725          
1 63717U 25087W   25127.91668981 -.01222760  44537-3 -34103-2 0  9992
2 63717  53.1550 211.1587 0000786  53.1700  36.9742 15.93052161  1462
STARLINK-33641          
1 63718U 25087X   25127.91668981 -.01197476  42753-3 -33912-2 0  9993
2 63718  53.1550 211.1801 0000745  54.3092  25.4788 15.92756468  1300
STARLINK-33727          
1 63719U 25087Y   25127.91668981 -.01212467  43783-3 -34121-2 0  9999
2 63719  53.1551 211.1716 0000802  52.6010  31.3769 15.92879213  1479
STARLINK-33757          
1 63720U 25087Z   25127.91668981 -.01225615  44709-3 -34255-2 0  9997
2 63720  53.1549 211.1621 0000814  52.7221  35.9385 15.93012362  1302
STARLINK-33774          
1 63721U 25087AA  25127.91668981 -.01220872  44368-3 -34233-2 0  9995
2 63721  53.1554 211.1665 0000705  57.6736  28.8081 15.92950075  1463
STARLINK-33767          
1 63722U 25087AB  25127.91668981 -.01185298  41939-3 -33679-2 0  9992
2 63722  53.1556 211.1851 0000835  51.6914  25.9004 15.92690611  1470
STARLINK-33806          
1 63723U 25087AC  25127.91668981 -.01206646  43377-3 -34059-2 0  9995
2 63723  53.1554 211.1760 0000803  52.4843  29.5123 15.92821075  1475
KUIPER-00008            
1 63724U 25088A   25128.16667824  .00034077  00000+0  10153-2 0  9995
2 63724  51.8608  53.5581 0010393 146.7590 357.2869 15.34318742  2041
KUIPER-00009            
1 63725U 25088B   25128.16667824  .00034702  00000+0  10253-2 0  9992
2 63725  51.8645  53.5423 0009810 143.5564   8.3564 15.34579255  2040
KUIPER-00010            
1 63726U 25088C   25128.16667824  .00034508  00000+0  10226-2 0  9997
2 63726  51.8660  53.5473 0009813 144.6269   4.8830 15.34488394  1656
KUIPER-00011            
1 63727U 25088D   25128.16667824  .00032862  00000+0  99298-3 0  9996
2 63727  51.8592  53.5862 0011843 151.0819 338.8076 15.33875741  1806
KUIPER-00012            
1 63728U 25088E   25127.91668981 -.00016532  00000+0 -48382-3 0  9990
2 63728  51.8578  54.7816 0011402 152.0019  39.4384 15.33987078  1710
KUIPER-00013            
1 63729U 25088F   25127.91668981 -.00016135  00000+0 -46799-3 0  9990
2 63729  51.8619  54.7650 0010755 146.1592  53.8877 15.34255830  1816
KUIPER-00014            
1 63730U 25088G   25128.16667824  .00032541  00000+0  98659-3 0  9994
2 63730  51.8608  53.5933 0011889 154.6260 332.0007 15.33774333  1654
KUIPER-00015            
1 63731U 25088H   25127.91668981 -.00016304  00000+0 -47448-3 0  9993
2 63731  51.8633  54.7743 0011403 150.9245  44.6844 15.34150431  2080
