[{"OBJECT_NAME":"STARLINK-33749","OBJECT_ID":"2025-087V","EPOCH":"2025-05-07T22:00:01.999584","MEAN_MOTION":15.92641801,"ECCENTRICITY":7.69e-5,"INCLINATION":53.1553,"RA_OF_ASC_NODE":211.1879,"ARG_OF_PERICENTER":55.5388,"MEAN_ANOMALY":20.523,"EPHEMERIS_TYPE":0,"CLASSIFICATION_TYPE":"U","NORAD_CAT_ID":63716,"ELEMENT_SET_NO":999,"REV_AT_EPOCH":146,"BSTAR":-0.0033595,"MEAN_MOTION_DOT":-0.01179386,"MEAN_MOTION_DDOT":0.00041539},{"OBJECT_NAME":"STARLINK-33725","OBJECT_ID":"2025-087W","EPOCH":"2025-05-07T22:00:01.999584","MEAN_MOTION":15.93052161,"ECCENTRICITY":7.86e-5,"INCLINATION":53.155,"RA_OF_ASC_NODE":211.1587,"ARG_OF_PERICENTER":53.17,"MEAN_ANOMALY":36.9742,"EPHEMERIS_TYPE":0,"CLASSIFICATION_TYPE":"U","NORAD_CAT_ID":63717,"ELEMENT_SET_NO":999,"REV_AT_EPOCH":146,"BSTAR":-0.0034103,"MEAN_MOTION_DOT":-0.0122276,"MEAN_MOTION_DDOT":0.00044537},{"OBJECT_NAME":"STARLINK-33641","OBJECT_ID":"2025-087X","EPOCH":"2025-05-07T22:00:01.999584","MEAN_MOTION":15.92756468,"ECCENTRICITY":7.45e-5,"INCLINATION":53.155,"RA_OF_ASC_NODE":211.1801,"ARG_OF_PERICENTER":54.3092,"MEAN_ANOMALY":25.4788,"EPHEMERIS_TYPE":0,"CLASSIFICATION_TYPE":"U","NORAD_CAT_ID":63718,"ELEMENT_SET_NO":999,"REV_AT_EPOCH":130,"BSTAR":-0.0033912,"MEAN_MOTION_DOT":-0.01197476,"MEAN_MOTION_DDOT":0.00042753},{"OBJECT_NAME":"STARLINK-33727","OBJECT_ID":"2025-087Y","EPOCH":"2025-05-07T22:00:01.999584","MEAN_MOTION":15.92879213,"ECCENTRICITY":8.02e-5,"INCLINATION":53.1551,"RA_OF_ASC_NODE":211.1716,"ARG_OF_PERICENTER":52.601,"MEAN_ANOMALY":31.3769,"EPHEMERIS_TYPE":0,"CLASSIFICATION_TYPE":"U","NORAD_CAT_ID":63719,"ELEMENT_SET_NO":999,"REV_AT_EPOCH":147,"BSTAR":-0.0034121,"MEAN_MOTION_DOT":-0.01212467,"MEAN_MOTION_DDOT":0.00043783},{"OBJECT_NAME":"STARLINK-33757","OBJECT_ID":"2025-087Z","EPOCH":"2025-05-07T22:00:01.999584","MEAN_MOTION":15.93012362,"ECCENTRICITY":8.14e-5,"INCLINATION":53.1549,"RA_OF_ASC_NODE":211.1621,"ARG_OF_PERICENTER":52.7221,"MEAN_ANOMALY":35.9385,"EPHEMERIS_TYPE":0,"CLASSIFICATION_TYPE":"U","NORAD_CAT_ID":63720,"ELEMENT_SET_NO":999,"REV_AT_EPOCH":130,"BSTAR":-0.0034255,"MEAN_MOTION_DOT":-0.01225615,"MEAN_MOTION_DDOT":0.00044709},{"OBJECT_NAME":"STARLINK-33774","OBJECT_ID":"2025-087AA","EPOCH":"2025-05-07T22:00:01.999584","MEAN_MOTION":15.92950075,"ECCENTRICITY":7.05e-5,"INCLINATION":53.1554,"RA_OF_ASC_NODE":211.1665,"ARG_OF_PERICENTER":57.6736,"MEAN_ANOMALY":28.8081,"EPHEMERIS_TYPE":0,"CLASSIFICATION_TYPE":"U","NORAD_CAT_ID":63721,"ELEMENT_SET_NO":999,"REV_AT_EPOCH":146,"BSTAR":-0.0034233,"MEAN_MOTION_DOT":-0.01220872,"MEAN_MOTION_DDOT":0.00044368},{"OBJECT_NAME":"STARLINK-33767","OBJECT_ID":"2025-087AB","EPOCH":"2025-05-07T22:00:01.999584","MEAN_MOTION":15.92690611,"ECCENTRICITY":8.35e-5,"INCLINATION":53.1556,"RA_OF_ASC_NODE":211.1851,"ARG_OF_PERICENTER":51.6914,"MEAN_ANOMALY":25.9004,"EPHEMERIS_TYPE":0,"CLASSIFICATION_TYPE":"U","NORAD_CAT_ID":63722,"ELEMENT_SET_NO":999,"REV_AT_EPOCH":147,"BSTAR":-0.0033679,"MEAN_MOTION_DOT":-0.01185298,"MEAN_MOTION_DDOT":0.00041939},{"OBJECT_NAME":"STARLINK-33806","OBJECT_ID":"2025-087AC","EPOCH":"2025-05-07T22:00:01.999584","MEAN_MOTION":15.92821075,"ECCENTRICITY":8.03e-5,"INCLINATION":53.1554,"RA_OF_ASC_NODE":211.176,"ARG_OF_PERICENTER":52.4843,"MEAN_ANOMALY":29.5123,"EPHEMERIS_TYPE":0,"CLASSIFICATION_TYPE":"U","NORAD_CAT_ID":63723,"ELEMENT_SET_NO":999,"REV_AT_EPOCH":147,"BSTAR":-0.0034059,"MEAN_MOTION_DOT":-0.01206646,"MEAN_MOTION_DDOT":0.00043377},{"OBJECT_NAME":"KUIPER-00008","OBJECT_ID":"2025-088A","EPOCH":"2025-05-08T04:00:00.999936","MEAN_MOTION":15.34318742,"ECCENTRICITY":0.0010393,"INCLINATION":51.8608,"RA_OF_ASC_NODE":53.5581,"ARG_OF_PERICENTER":146.759,"MEAN_ANOMALY":357.2869,"EPHEMERIS_TYPE":0,"CLASSIFICATION_TYPE":"U","NORAD_CAT_ID":63724,"ELEMENT_SET_NO":999,"REV_AT_EPOCH":204,"BSTAR":0.0010153,"MEAN_MOTION_DOT":0.00034077,"MEAN_MOTION_DDOT":0},{"OBJECT_NAME":"KUIPER-00009","OBJECT_ID":"2025-088B","EPOCH":"2025-05-08T04:00:00.999936","MEAN_MOTION":15.34579255,"ECCENTRICITY":0.000981,"INCLINATION":51.8645,"RA_OF_ASC_NODE":53.5423,"ARG_OF_PERICENTER":143.5564,"MEAN_ANOMALY":8.3564,"EPHEMERIS_TYPE":0,"CLASSIFICATION_TYPE":"U","NORAD_CAT_ID":63725,"ELEMENT_SET_NO":999,"REV_AT_EPOCH":204,"BSTAR":0.0010253,"MEAN_MOTION_DOT":0.00034702,"MEAN_MOTION_DDOT":0},{"OBJECT_NAME":"KUIPER-00010","OBJECT_ID":"2025-088C","EPOCH":"2025-05-08T04:00:00.999936","MEAN_MOTION":15.34488394,"ECCENTRICITY":0.0009813,"INCLINATION":51.866,"RA_OF_ASC_NODE":53.5473,"ARG_OF_PERICENTER":144.6269,"MEAN_ANOMALY":4.883,"EPHEMERIS_TYPE":0,"CLASSIFICATION_TYPE":"U","NORAD_CAT_ID":63726,"ELEMENT_SET_NO":999,"REV_AT_EPOCH":165,"BSTAR":0.0010226,"MEAN_MOTION_DOT":0.00034508,"MEAN_MOTION_DDOT":0},{"OBJECT_NAME":"KUIPER-00011","OBJECT_ID":"2025-088D","EPOCH":"2025-05-08T04:00:00.999936","MEAN_MOTION":15.33875741,"ECCENTRICITY":0.0011843,"INCLINATION":51.8592,"RA_OF_ASC_NODE":53.5862,"ARG_OF_PERICENTER":151.0819,"MEAN_ANOMALY":338.8076,"EPHEMERIS_TYPE":0,"CLASSIFICATION_TYPE":"U","NORAD_CAT_ID":63727,"ELEMENT_SET_NO":999,"REV_AT_EPOCH":180,"BSTAR":0.00099298,"MEAN_MOTION_DOT":0.00032862,"MEAN_MOTION_DDOT":0},{"OBJECT_NAME":"KUIPER-00012","OBJECT_ID":"2025-088E","EPOCH":"2025-05-07T22:00:01.999584","MEAN_MOTION":15.33987078,"ECCENTRICITY":0.0011402,"INCLINATION":51.8578,"RA_OF_ASC_NODE":54.7816,"ARG_OF_PERICENTER":152.0019,"MEAN_ANOMALY":39.4384,"EPHEMERIS_TYPE":0,"CLASSIFICATION_TYPE":"U","NORAD_CAT_ID":63728,"ELEMENT_SET_NO":999,"REV_AT_EPOCH":171,"BSTAR":-0.00048382,"MEAN_MOTION_DOT":-0.00016532,"MEAN_MOTION_DDOT":0},{"OBJECT_NAME":"KUIPER-00013","OBJECT_ID":"2025-088F","EPOCH":"2025-05-07T22:00:01.999584","MEAN_MOTION":15.3425583,"ECCENTRICITY":0.0010755,"INCLINATION":51.8619,"RA_OF_ASC_NODE":54.765,"ARG_OF_PERICENTER":146.1592,"MEAN_ANOMALY":53.8877,"EPHEMERIS_TYPE":0,"CLASSIFICATION_TYPE":"U","NORAD_CAT_ID":63729,"ELEMENT_SET_NO":999,"REV_AT_EPOCH":181,"BSTAR":-0.00046799,"MEAN_MOTION_DOT":-0.00016135,"MEAN_MOTION_DDOT":0},{"OBJECT_NAME":"KUIPER-00014","OBJECT_ID":"2025-088G","EPOCH":"2025-05-08T04:00:00.999936","MEAN_MOTION":15.33774333,"ECCENTRICITY":0.0011889,"INCLINATION":51.8608,"RA_OF_ASC_NODE":53.5933,"ARG_OF_PERICENTER":154.626,"MEAN_ANOMALY":332.0007,"EPHEMERIS_TYPE":0,"CLASSIFICATION_TYPE":"U","NORAD_CAT_ID":63730,"ELEMENT_SET_NO":999,"REV_AT_EPOCH":165,"BSTAR":0.00098659,"MEAN_MOTION_DOT":0.00032541,"MEAN_MOTION_DDOT":0},{"OBJECT_NAME":"KUIPER-00015","OBJECT_ID":"2025-088H","EPOCH":"2025-05-07T22:00:01.999584","MEAN_MOTION":15.34150431,"ECCENTRICITY":0.0011403,"INCLINATION":51.8633,"RA_OF_ASC_NODE":54.7743,"ARG_OF_PERICENTER":150.9245,"MEAN_ANOMALY":44.6844,"EPHEMERIS_TYPE":0,"CLASSIFICATION_TYPE":"U","NORAD_CAT_ID":63731,"ELEMENT_SET_NO":999,"REV_AT_EPOCH":208,"BSTAR":-0.00047448,"MEAN_MOTION_DOT":-0.00016304,"MEAN_MOTION_DDOT":0}]
